[{"OBJECT_NAME":"LUDI TANCE 1-01A (L-SAR 01A)","OBJECT_ID":"2022-007A","EPOCH":"2026-03-07T11:12:13.120128","MEAN_MOTION":14.88423371,"ECCENTRICITY":0.00016135,"INCLINATION":97.8118,"RA_OF_ASC_NODE":75.3379,"ARG_OF_PERICENTER":90.555,"MEAN_ANOMALY":269.5851,"EPHEMERIS_TYPE":0,"CLASSIFICATION_TYPE":"U","NORAD_CAT_ID":51284,"ELEMENT_SET_NO":999,"REV_AT_EPOCH":22334,"BSTAR":0.00012861429,"MEAN_MOTION_DOT":1.138e-5,"MEAN_MOTION_DDOT":0},{"OBJECT_NAME":"FENGYUN 1C DEB","OBJECT_ID":"1999-025BMJ","EPOCH":"2026-03-08T06:40:20.244576","MEAN_MOTION":14.40532982,"ECCENTRICITY":0.02111966,"INCLINATION":98.3123,"RA_OF_ASC_NODE":88.759,"ARG_OF_PERICENTER":274.641,"MEAN_ANOMALY":83.0688,"EPHEMERIS_TYPE":0,"CLASSIFICATION_TYPE":"U","NORAD_CAT_ID":31252,"ELEMENT_SET_NO":999,"REV_AT_EPOCH":98438,"BSTAR":0.00056940324,"MEAN_MOTION_DOT":2.308e-5,"MEAN_MOTION_DDOT":0}]
